IRIDIUM 7 [-]           
1 24793U 97020B   23345.55336695  .00000301  00000+0  98940-4 0  9999
2 24793  86.3972  48.7994 0002318  99.5237 260.6221 14.35005450392473
IRIDIUM 5 [-]           
1 24795U 97020D   23345.47710500  .00003717  00000+0  37046-3 0  9996
2 24795  86.3920 336.9662 0124486 312.5392  46.5372 14.85601906403039
IRIDIUM 4 [-]           
1 24796U 97020E   23345.61090066  .00000317  00000+0  10245-3 0  9996
2 24796  86.3968  46.0208 0002069  98.1363 262.0069 14.35914379393003
IRIDIUM 914 [-]         
1 24836U 97030A   23345.58838958  .00000401  00000+0  12189-3 0  9991
2 24836  86.3946  56.2514 0001017 153.4265 206.6986 14.39741471527449
IRIDIUM 16 [-]          
1 24841U 97030F   23345.35706450  .00000369  00000+0  11647-3 0  9994
2 24841  86.4037  77.8481 0004217  89.7215 270.4465 14.37626695387409
IRIDIUM 911 [-]         
1 24842U 97030G   23345.29868726  .00000528  00000+0  14196-3 0  9992
2 24842  86.4465  77.1570 0015822 137.5171 222.7259 14.46182823394997
IRIDIUM 17 [-]          
1 24870U 97034B   23345.83380437  .00000434  00000+0  14071-3 0  9993
2 24870  86.3955 107.3088 0003091  63.2140 296.9373 14.36718525384102
IRIDIUM 920 [-]         
1 24871U 97034C   23345.35629378  .00000409  00000+0  12244-3 0  9993
2 24871  86.3974  88.0229 0013614 105.9492 254.3208 14.40442095386829
